{"type": "FeatureCollection", "features": [ {"type": "Feature", "properties": {"norad_id": 32088, "name": "FENGYUN 1C DEB", "group": "fengyun-1c-debris", "lat": -21.181258587968525, "lon": -125.90973813132086, "alt_km": 827.082732910334, "timestamp": "2025-12-26T12:57:39.558081+00:00", "meta": {"OBJECT_NAME": "FENGYUN 1C DEB", "OBJECT_ID": "1999-025CQE", "EPOCH": "2025-12-23T10:46:45.629472", "MEAN_MOTION": 13.25224895, "ECCENTRICITY": 0.0461755, "INCLINATION": 102.4001, "RA_OF_ASC_NODE": 225.5123, "ARG_OF_PERICENTER": 334.191, "MEAN_ANOMALY": 23.6804, "EPHEMERIS_TYPE": 0, "CLASSIFICATION_TYPE": "U", "NORAD_CAT_ID": 32088, "ELEMENT_SET_NO": 999, "REV_AT_EPOCH": 59986, "BSTAR": 0.002907038, "MEAN_MOTION_DOT": 2.182e-05, "MEAN_MOTION_DDOT": 0}, "tle": {"line1": "1 32088U 99025CQE 25357.44913923  .00002182  00000+0  29070-2 0  9995", "line2": "2 32088 102.4001 225.5123 0461755 334.1910  23.6804 13.25224895599861"}}, "geometry": {"type": "Point", "coordinates": [-125.90973813132086, -21.181258587968525]}}, {"type": "Feature", "properties": {"norad_id": 32089, "name": "FENGYUN 1C DEB", "group": "fengyun-1c-debris", "lat": 19.716444695485812, "lon": -171.18898108361893, "alt_km": 823.8131265706625, "timestamp": "2025-12-26T12:57:39.558093+00:00", "meta": {"OBJECT_NAME": "FENGYUN 1C DEB", "OBJECT_ID": "1999-025CQF", "EPOCH": "2025-12-23T06:06:14.384160", "MEAN_MOTION": 14.14091196, "ECCENTRICITY": 0.01123625, "INCLINATION": 98.6546, "RA_OF_ASC_NODE": 2.4994, "ARG_OF_PERICENTER": 94.1409, "MEAN_ANOMALY": 267.2615, "EPHEMERIS_TYPE": 0, "CLASSIFICATION_TYPE": "U", "NORAD_CAT_ID": 32089, "ELEMENT_SET_NO": 999, "REV_AT_EPOCH": 63364, "BSTAR": 0.0004947317, "MEAN_MOTION_DOT": 9.59e-06, "MEAN_MOTION_DDOT": 0}, "tle": {"line1": "1 32089U 99025CQF 25357.25433315  .00000959  00000+0  49473-3 0  9997", "line2": "2 32089  98.6546   2.4994 0112362  94.1409 267.2615 14.14091196633649"}}, "geometry": {"type": "Point", "coordinates": [-171.18898108361893, 19.716444695485812]}}, {"type": "Feature", "properties": {"norad_id": 32093, "name": "FENGYUN 1C DEB", "group": "fengyun-1c-debris", "lat": 33.75892006352844, "lon": 39.915685217509335, "alt_km": 819.0287006143062, "timestamp": "2025-12-26T12:57:39.558103+00:00", "meta": {"OBJECT_NAME": "FENGYUN 1C DEB", "OBJECT_ID": "1999-025CQK", "EPOCH": "2025-12-25T12:53:48.609024", "MEAN_MOTION": 14.37639928, "ECCENTRICITY": 0.0078823, "INCLINATION": 98.9187, "RA_OF_ASC_NODE": 212.851, "ARG_OF_PERICENTER": 315.8481, "MEAN_ANOMALY": 43.643, "EPHEMERIS_TYPE": 0, "CLASSIFICATION_TYPE": "U", "NORAD_CAT_ID": 32093, "ELEMENT_SET_NO": 999, "REV_AT_EPOCH": 96701, "BSTAR": 0.0004354, "MEAN_MOTION_DOT": 1.306e-05, "MEAN_MOTION_DDOT": 0}, "tle": {"line1": "1 32093U 99025CQK 25359.53736816  .00001306  00000+0  43540-3 0  9993", "line2": "2 32093  98.9187 212.8510 0078823 315.8481  43.6430 14.37639928967013"}}, "geometry": {"type": "Point", "coordinates": [39.915685217509335, 33.75892006352844]}}, {"type": "Feature", "properties": {"norad_id": 32094, "name": "FENGYUN 1C DEB", "group": "fengyun-1c-debris", "lat": 37.72892328367536, "lon": -16.25888699843122, "alt_km": 878.2825317833049, "timestamp": "2025-12-26T12:57:39.558114+00:00", "meta": {"OBJECT_NAME": "FENGYUN 1C DEB", "OBJECT_ID": "1999-025CQL", "EPOCH": "2025-12-21T05:06:54.522720", "MEAN_MOTION": 14.10737989, "ECCENTRICITY": 0.00341017, "INCLINATION": 98.7448, "RA_OF_ASC_NODE": 345.3972, "ARG_OF_PERICENTER": 243.828, "MEAN_ANOMALY": 115.9383, "EPHEMERIS_TYPE": 0, "CLASSIFICATION_TYPE": "U", "NORAD_CAT_ID": 32094, "ELEMENT_SET_NO": 999, "REV_AT_EPOCH": 94484, "BSTAR": 0.00027112552, "MEAN_MOTION_DOT": 4.44e-06, "MEAN_MOTION_DDOT": 0}, "tle": {"line1": "1 32094U 99025CQL 25355.21313105  .00000444  00000+0  27113-3 0  9997", "line2": "2 32094  98.7448 345.3972 0034101 243.8280 115.9383 14.10737989944847"}}, "geometry": {"type": "Point", "coordinates": [-16.25888699843122, 37.72892328367536]}}, {"type": "Feature", "properties": {"norad_id": 32095, "name": "FENGYUN 1C DEB", "group": "fengyun-1c-debris", "lat": 64.0356572516758, "lon": -146.0629953925056, "alt_km": 804.9675876855545, "timestamp": "2025-12-26T12:57:39.558125+00:00", "meta": {"OBJECT_NAME": "FENGYUN 1C DEB", "OBJECT_ID": "1999-025CQM", "EPOCH": "2025-12-23T18:17:35.021760", "MEAN_MOTION": 14.16051909, "ECCENTRICITY": 0.00789665, "INCLINATION": 98.6404, "RA_OF_ASC_NODE": 13.0475, "ARG_OF_PERICENTER": 60.9234, "MEAN_ANOMALY": 299.9819, "EPHEMERIS_TYPE": 0, "CLASSIFICATION_TYPE": "U", "NORAD_CAT_ID": 32095, "ELEMENT_SET_NO": 999, "REV_AT_EPOCH": 94973, "BSTAR": 0.00024994611, "MEAN_MOTION_DOT": 4.67e-06, "MEAN_MOTION_DDOT": 0}, "tle": {"line1": "1 32095U 99025CQM 25357.76221090  .00000467  00000+0  24995-3 0  9991", "line2": "2 32095  98.6404  13.0475 0078966  60.9234 299.9819 14.16051909949737"}}, "geometry": {"type": "Point", "coordinates": [-146.0629953925056, 64.0356572516758]}}, {"type": "Feature", "properties": {"norad_id": 32096, "name": "FENGYUN 1C DEB", "group": "fengyun-1c-debris", "lat": 60.70101307958206, "lon": 12.653800650619756, "alt_km": 846.5753378781128, "timestamp": "2025-12-26T12:57:39.558136+00:00", "meta": {"OBJECT_NAME": "FENGYUN 1C DEB", "OBJECT_ID": "1999-025CQN", "EPOCH": "2025-12-19T20:01:42.439872", "MEAN_MOTION": 13.90214734, "ECCENTRICITY": 0.01346293, "INCLINATION": 99.0729, "RA_OF_ASC_NODE": 22.6552, "ARG_OF_PERICENTER": 120.8024, "MEAN_ANOMALY": 240.6466, "EPHEMERIS_TYPE": 0, "CLASSIFICATION_TYPE": "U", "NORAD_CAT_ID": 32096, "ELEMENT_SET_NO": 999, "REV_AT_EPOCH": 92960, "BSTAR": 0.00089068221, "MEAN_MOTION_DOT": 1.144e-05, "MEAN_MOTION_DDOT": 0}, "tle": {"line1": "1 32096U 99025CQN 25353.83451898  .00001144  00000+0  89068-3 0  9992", "line2": "2 32096  99.0729  22.6552 0134629 120.8024 240.6466 13.90214734929600"}}, "geometry": {"type": "Point", "coordinates": [12.653800650619756, 60.70101307958206]}}, {"type": "Feature", "properties": {"norad_id": 32098, "name": "FENGYUN 1C DEB", "group": "fengyun-1c-debris", "lat": 23.66651772521479, "lon": 176.43672434578696, "alt_km": 786.9341084776852, "timestamp": "2025-12-26T12:57:39.558147+00:00", "meta": {"OBJECT_NAME": "FENGYUN 1C DEB", "OBJECT_ID": "1999-025CQQ", "EPOCH": "2025-12-17T05:04:00.480288", "MEAN_MOTION": 14.20263212, "ECCENTRICITY": 0.01958107, "INCLINATION": 98.6122, "RA_OF_ASC_NODE": 343.5394, "ARG_OF_PERICENTER": 106.9951, "MEAN_ANOMALY": 255.2785, "EPHEMERIS_TYPE": 0, "CLASSIFICATION_TYPE": "U", "NORAD_CAT_ID": 32098, "ELEMENT_SET_NO": 999, "REV_AT_EPOCH": 64291, "BSTAR": 0.00022141039, "MEAN_MOTION_DOT": 5.31e-06, "MEAN_MOTION_DDOT": 0}, "tle": {"line1": "1 32098U 99025CQQ 25351.21111667  .00000531  00000+0  22141-3 0  9999", "line2": "2 32098  98.6122 343.5394 0195810 106.9951 255.2785 14.20263212642917"}}, "geometry": {"type": "Point", "coordinates": [176.43672434578696, 23.66651772521479]}}, {"type": "Feature", "properties": {"norad_id": 32099, "name": "FENGYUN 1C DEB", "group": "fengyun-1c-debris", "lat": -53.106085544126444, "lon": -17.87625457229539, "alt_km": 834.287778529022, "timestamp": "2025-12-26T12:57:39.558157+00:00", "meta": {"OBJECT_NAME": "FENGYUN 1C DEB", "OBJECT_ID": "1999-025CQR", "EPOCH": "2025-12-13T04:24:17.454240", "MEAN_MOTION": 13.91775545, "ECCENTRICITY": 0.03428827, "INCLINATION": 98.2819, "RA_OF_ASC_NODE": 318.9761, "ARG_OF_PERICENTER": 273.8166, "MEAN_ANOMALY": 102.561, "EPHEMERIS_TYPE": 0, "CLASSIFICATION_TYPE": "U", "NORAD_CAT_ID": 32099, "ELEMENT_SET_NO": 999, "REV_AT_EPOCH": 64694, "BSTAR": 0.0015539286, "MEAN_MOTION_DOT": 3.154e-05, "MEAN_MOTION_DDOT": 0}, "tle": {"line1": "1 32099U 99025CQR 25347.18353535  .00003154  00000+0  15539-2 0  9999", "line2": "2 32099  98.2819 318.9761 0342882 273.8166 102.5610 13.91775545646948"}}, "geometry": {"type": "Point", "coordinates": [-17.87625457229539, -53.106085544126444]}}, {"type": "Feature", "properties": {"norad_id": 32101, "name": "FENGYUN 1C DEB", "group": "fengyun-1c-debris", "lat": 22.458837081366532, "lon": 83.23714012561602, "alt_km": 823.349746275625, "timestamp": "2025-12-26T12:57:39.558167+00:00", "meta": {"OBJECT_NAME": "FENGYUN 1C DEB", "OBJECT_ID": "1999-025CQT", "EPOCH": "2025-12-23T00:15:46.694304", "MEAN_MOTION": 14.01707747, "ECCENTRICITY": 0.0119878, "INCLINATION": 99.0338, "RA_OF_ASC_NODE": 255.9717, "ARG_OF_PERICENTER": 210.0418, "MEAN_ANOMALY": 149.3833, "EPHEMERIS_TYPE": 0, "CLASSIFICATION_TYPE": "U", "NORAD_CAT_ID": 32101, "ELEMENT_SET_NO": 999, "REV_AT_EPOCH": 93326, "BSTAR": 0.0018843239, "MEAN_MOTION_DOT": 3e-05, "MEAN_MOTION_DDOT": 0}, "tle": {"line1": "1 32101U 99025CQT 25357.01095711  .00003000  00000+0  18843-2 0  9996", "line2": "2 32101  99.0338 255.9717 0119878 210.0418 149.3833 14.01707747933269"}}, "geometry": {"type": "Point", "coordinates": [83.23714012561602, 22.458837081366532]}}, {"type": "Feature", "properties": {"norad_id": 32105, "name": "FENGYUN 1C DEB", "group": "fengyun-1c-debris", "lat": -56.341907895297645, "lon": 17.619192853723156, "alt_km": 1181.5598988936908, "timestamp": "2025-12-26T12:57:39.558179+00:00", "meta": {"OBJECT_NAME": "FENGYUN 1C DEB", "OBJECT_ID": "1999-025CQX", "EPOCH": "2025-12-25T19:20:05.450496", "MEAN_MOTION": 13.40328761, "ECCENTRICITY": 0.03952631, "INCLINATION": 103.4646, "RA_OF_ASC_NODE": 355.5577, "ARG_OF_PERICENTER": 47.9513, "MEAN_ANOMALY": 315.4535, "EPHEMERIS_TYPE": 0, "CLASSIFICATION_TYPE": "U", "NORAD_CAT_ID": 32105, "ELEMENT_SET_NO": 999, "REV_AT_EPOCH": 59886, "BSTAR": 0.003021239, "MEAN_MOTION_DOT": 2.546e-05, "MEAN_MOTION_DDOT": 0}, "tle": {"line1": "1 32105U 99025CQX 25359.80561864  .00002546  00000+0  30212-2 0  9994", "line2": "2 32105 103.4646 355.5577 0395263  47.9513 315.4535 13.40328761598868"}}, "geometry": {"type": "Point", "coordinates": [17.619192853723156, -56.341907895297645]}}]}